COMMENT,ORIGINATOR,NORAD_CAT_ID,OBJECT_NAME,OBJECT_TYPE,CLASSIFICATION_TYPE,INTLDES,EPOCH,EPOCH_MICROSECONDS,MEAN_MOTION,ECCENTRICITY,INCLINATION,RA_OF_ASC_NODE,ARG_OF_PERICENTER,MEAN_ANOMALY,EPHEMERIS_TYPE,ELEMENT_SET_NO,REV_AT_EPOCH,BSTAR,MEAN_MOTION_DOT,MEAN_MOTION_DDOT,FILE,TLE_LINE0,TLE_LINE1,TLE_LINE2,OBJECT_ID,OBJECT_NUMBER,SEMIMAJOR_AXIS,PERIOD,APOGEE,PERIGEE,DECAYED
"GENERATED VIA SPACETRACK.ORG API","18 SPCS","51110","STARLINK-3344","PAYLOAD","U","22005G","2022-10-03 20:06:42","319584","15.08862453","0.0001688","53.215","153.4016","54.4534","305.6615","0","999","3974","0.0008788","0.00013734","0","3590585","0 STARLINK-3344","1 51110U 22005G   22276.83798981  .00013734  00000-0  87880-3 0  9991","2 51110  53.2150 153.4016 0001688  54.4534 305.6615 15.08862453 39745","2022-005G","51110","6917.812","95.436","540.844","538.509","0"
"GENERATED VIA SPACETRACK.ORG API","18 SPCS","51110","STARLINK-3344","PAYLOAD","U","22005G","2022-10-04 00:52:51","757824","15.08852481","0.0001748","53.215","152.5098","53.1711","306.9442","0","999","4088","0.00030887","0.00004633","0","3590714","0 STARLINK-3344","1 51110U 22005G   22277.03671016  .00004633  00000-0  30887-3 0  9996","2 51110  53.2150 152.5098 0001748  53.1711 306.9442 15.08852481 40884","2022-005G","51110","6917.842","95.437","540.916","538.498","0"
"GENERATED VIA SPACETRACK.ORG API","18 SPCS","51110","STARLINK-3344","PAYLOAD","U","22005G","2022-10-04 00:52:51","757824","15.08852481","0.0001748","53.215","152.5098","53.1711","306.9442","0","999","3977","0.00030887","0.00004633","0","3591197","0 STARLINK-3344","1 51110U 22005G   22277.03671016  .00004633  00000-0  30887-3 0  9996","2 51110  53.2150 152.5098 0001748  53.1711 306.9442 15.08852481 39770","2022-005G","51110","6917.842","95.437","540.916","538.498","0"
"GENERATED VIA SPACETRACK.ORG API","18 SPCS","51110","STARLINK-3344","PAYLOAD","U","22005G","2022-10-04 19:57:29","110752","15.08848608","0.000157","53.2149","148.9411","57.4035","302.7108","0","999","3989","0.00028382","0.00004233","0","3591597","0 STARLINK-3344","1 51110U 22005G   22277.83158693  .00004233  00000-0  28382-3 0  9998","2 51110  53.2149 148.9411 0001570  57.4035 302.7108 15.08848608 39897","2022-005G","51110","6917.854","95.437","540.805","538.633","0"
"GENERATED VIA SPACETRACK.ORG API","18 SPCS","51110","STARLINK-3344","PAYLOAD","U","22005G","2022-10-04 23:08:15","483840","15.08842735","0.0001529","53.215","148.3465","45.2597","314.852","0","999","4102","0.00015998","0.00002259","0","3591969","0 STARLINK-3344","1 51110U 22005G   22277.96406810  .00002259  00000-0  15998-3 0  9994","2 51110  53.2150 148.3465 0001529  45.2597 314.8520 15.08842735 41029","2022-005G","51110","6917.872","95.437","540.795","538.679","0"
"GENERATED VIA SPACETRACK.ORG API","18 SPCS","51110","STARLINK-3344","PAYLOAD","U","22005G","2022-10-05 08:40:34","369824","15.08841323","0.0001519","53.2149","146.5622","49.731","310.3815","0","999","3997","0.00011643","0.00001566","0","3592692","0 STARLINK-3344","1 51110U 22005G   22278.36150891  .00001566  00000-0  11643-3 0  9997","2 51110  53.2149 146.5622 0001519  49.7310 310.3815 15.08841323 39974","2022-005G","51110","6917.876","95.437","540.792","538.691","0"
"GENERATED VIA SPACETRACK.ORG API","18 SPCS","51110","STARLINK-3344","PAYLOAD","U","22005G","2022-10-05 19:48:16","653600","15.08835908","0.0001641","53.2152","144.4804","59.5622","300.5532","0","999","4004","0.000042104","0.00000382","0","3593077","0 STARLINK-3344","1 51110U 22005G   22278.82519275  .00000382  00000-0  42104-4 0  9995","2 51110  53.2152 144.4804 0001641  59.5622 300.5532 15.08835908 40047","2022-005G","51110","6917.893","95.438","540.893","538.623","0"
"GENERATED VIA SPACETRACK.ORG API","18 SPCS","51110","STARLINK-3344","PAYLOAD","U","22005G","2022-10-06 00:34:26","458176","15.08828114","0.0001592","53.2147","143.5873","53.1087","307.0051","0","999","4118","-0.00011728","-0.00002153","0","3593254","0 STARLINK-3344","1 51110U 22005G   22279.02391734 -.00002153  00000-0 -11728-3 0  9993","2 51110  53.2147 143.5873 0001592  53.1087 307.0051 15.08828114 41182","2022-005G","51110","6917.917","95.438","540.883","538.680","0"
"GENERATED VIA SPACETRACK.ORG API","18 SPCS","51110","STARLINK-3344","PAYLOAD","U","22005G","2022-10-06 08:31:22","269504","15.0883387","0.000144","53.2152","142.1004","55.982","304.1309","0","999","4012","0.000071103","0.00000844","0","3593749","0 STARLINK-3344","1 51110U 22005G   22279.35511886  .00000844  00000-0  71103-4 0  9998","2 51110  53.2152 142.1004 0001440  55.9820 304.1309 15.08833870 40128","2022-005G","51110","6917.899","95.438","540.760","538.768","0"
"GENERATED VIA SPACETRACK.ORG API","18 SPCS","51110","STARLINK-3344","PAYLOAD","U","22005G","2022-10-06 21:14:27","98304","15.08843164","0.0001713","53.2151","139.7228","54.2511","305.864","0","999","4131","0.00025702","0.00003805","0","3594214","0 STARLINK-3344","1 51110U 22005G   22279.88503586  .00003805  00000-0  25702-3 0  9997","2 51110  53.2151 139.7228 0001713  54.2511 305.8640 15.08843164 41314","2022-005G","51110","6917.871","95.437","540.921","538.551","0"
"GENERATED VIA SPACETRACK.ORG API","18 SPCS","51110","STARLINK-3344","PAYLOAD","U","22005G","2022-10-06 21:14:27","98304","15.08843164","0.0001713","53.2151","139.7228","54.2511","305.864","0","999","4020","0.00025702","0.00003805","0","3594620","0 STARLINK-3344","1 51110U 22005G   22279.88503586  .00003805  00000-0  25702-3 0  9997","2 51110  53.2151 139.7228 0001713  54.2511 305.8640 15.08843164 40201","2022-005G","51110","6917.871","95.437","540.921","538.551","0"
"GENERATED VIA SPACETRACK.ORG API","18 SPCS","51110","STARLINK-3344","PAYLOAD","U","22005G","2022-10-07 08:22:09","20064","15.08845496","0.0001695","53.2157","137.641","51.8286","308.2858","0","999","4027","0.00022119","0.00003234","0","3595509","0 STARLINK-3344","1 51110U 22005G   22280.34871551  .00003234  00000-0  22119-3 0  9995","2 51110  53.2157 137.6410 0001695  51.8286 308.2858 15.08845496 40273","2022-005G","51110","6917.864","95.437","540.901","538.556","0"
"GENERATED VIA SPACETRACK.ORG API","18 SPCS","51110","STARLINK-3344","PAYLOAD","U","22005G","2022-10-07 21:05:14","464896","15.08837926","0.0001795","53.2157","135.2633","47.583","312.5314","0","999","4146","0.00013833","0.00001914","0","3595665","0 STARLINK-3344","1 51110U 22005G   22280.87863964  .00001914  00000-0  13833-3 0  9998","2 51110  53.2157 135.2633 0001795  47.5830 312.5314 15.08837926 41468","2022-005G","51110","6917.887","95.438","540.993","538.510","0"
"GENERATED VIA SPACETRACK.ORG API","18 SPCS","51110","STARLINK-3344","PAYLOAD","U","22005G","2022-10-07 21:05:14","464896","15.08837926","0.0001795","53.2157","135.2633","47.583","312.5314","0","999","4035","0.00013833","0.00001914","0","3595773","0 STARLINK-3344","1 51110U 22005G   22280.87863964  .00001914  00000-0  13833-3 0  9998","2 51110  53.2157 135.2633 0001795  47.5830 312.5314 15.08837926 40355","2022-005G","51110","6917.887","95.438","540.993","538.510","0"
"GENERATED VIA SPACETRACK.ORG API","18 SPCS","51110","STARLINK-3344","PAYLOAD","U","22005G","2022-10-08 01:51:24","408576","15.08829558","0.0001813","53.2153","134.3703","56.5723","303.5442","0","999","4149","0.000080018","0.00000985","0","3595959","0 STARLINK-3344","1 51110U 22005G   22281.07736584  .00000985  00000-0  80018-4 0  9995","2 51110  53.2153 134.3703 0001813  56.5723 303.5442 15.08829558 41491","2022-005G","51110","6917.912","95.438","541.032","538.523","0"
"GENERATED VIA SPACETRACK.ORG API","18 SPCS","51110","STARLINK-3344","PAYLOAD","U","22005G","2022-10-08 01:51:24","408576","15.08829558","0.0001813","53.2153","134.3703","56.5723","303.5442","0","999","4038","0.000080018","0.00000985","0","3596390","0 STARLINK-3344","1 51110U 22005G   22281.07736584  .00000985  00000-0  80018-4 0  9995","2 51110  53.2153 134.3703 0001813  56.5723 303.5442 15.08829558 40388","2022-005G","51110","6917.912","95.438","541.032","538.523","0"
"GENERATED VIA SPACETRACK.ORG API","18 SPCS","51110","STARLINK-3344","PAYLOAD","U","22005G","2022-10-08 20:56:01","511808","15.08840155","0.0001815","53.2154","130.8013","54.0941","306.0219","0","999","4161","0.000031167","0.00000208","0","3596499","0 STARLINK-3344","1 51110U 22005G   22281.87223972  .00000208  00000-0  31167-4 0  9994","2 51110  53.2154 130.8013 0001815  54.0941 306.0219 15.08840155 41614","2022-005G","51110","6917.880","95.438","541.001","538.489","0"
"GENERATED VIA SPACETRACK.ORG API","18 SPCS","51110","STARLINK-3344","PAYLOAD","U","22005G","2022-10-08 20:56:01","511808","15.08840155","0.0001815","53.2154","130.8013","54.0941","306.0219","0","999","4050","0.000031167","0.00000208","0","3596607","0 STARLINK-3344","1 51110U 22005G   22281.87223972  .00000208  00000-0  31167-4 0  9994","2 51110  53.2154 130.8013 0001815  54.0941 306.0219 15.08840155 40501","2022-005G","51110","6917.880","95.438","541.001","538.489","0"
"GENERATED VIA SPACETRACK.ORG API","18 SPCS","51110","STARLINK-3344","PAYLOAD","U","22005G","2022-10-09 00:06:47","905632","15.0883732","0.0001879","53.2156","130.2066","54.9603","305.1565","0","999","4052","0.000010012","-0.00000129","0","3597861","0 STARLINK-3344","1 51110U 22005G   22282.00472113 -.00000129  00000-0  10012-4 0  9992","2 51110  53.2156 130.2066 0001879  54.9603 305.1565 15.08837320 40525","2022-005G","51110","6917.889","95.438","541.053","538.454","0"
"GENERATED VIA SPACETRACK.ORG API","18 SPCS","51110","STARLINK-3344","PAYLOAD","U","22005G","2022-10-09 20:46:48","638208","15.08841244","0.0001705","53.215","126.3405","54.2811","305.8339","0","999","4065","0.00012281","0.00001667","0","3598879","0 STARLINK-3344","1 51110U 22005G   22282.86584072  .00001667  00000-0  12281-3 0  9990","2 51110  53.2150 126.3405 0001705  54.2811 305.8339 15.08841244 40654","2022-005G","51110","6917.877","95.437","540.921","538.562","0"
